ONEWEB-0032             
1 45141U 20008L   24094.80447230  .00001877  00000+0  53334-2 0  9994
2 45141  87.8993 196.1396 0001672 100.8860 259.2456 13.10448534202959
ONEWEB-0033             
1 45142U 20008M   24095.54260209 -.00000573  00000+0 -16799-2 0  9994
2 45142  87.8992 196.0026 0001884 113.7433 246.3892 13.10244378203864
ONEWEB-0035             
1 45143U 20008N   24095.19275734  .00000624  00000+0  17494-2 0  9993
2 45143  87.8995 196.0491 0001845 109.7690 250.3636 13.10425570203531
ONEWEB-0036             
1 45144U 20008P   24094.80115227  .00001074  00000+0  30355-2 0  9992
2 45144  87.8995 196.0863 0001909 100.6790 259.4552 13.10470905203020
ONEWEB-0038             
1 45145U 20008Q   24094.75921730  .00000511  00000+0  14057-2 0  9997
2 45145  87.9036 181.0335 0001260  85.0617 275.0654 13.11415809204896
ONEWEB-0039             
1 45146U 20008R   24095.54586541 -.00000472  00000+0 -13902-2 0  9999
2 45146  87.8996 195.9559 0001980  90.8828 269.2526 13.10231583203694
ONEWEB-0040             
1 45147U 20008S   24095.53929982 -.00000599  00000+0 -17563-2 0  9996
2 45147  87.9002 195.9540 0001812 103.6933 256.4396 13.10260369203404
ONEWEB-0041             
1 45148U 20008T   24095.18442782  .00000090  00000+0  12314-3 0  9990
2 45148  87.9468 171.0905 0018064  23.7309 336.4669 13.48452142210501
